*******************************************************************************
Ephemeris / WWW_USER Mon Dec 26 18:23:15 2016 Pasadena, USA      / Horizons    
*******************************************************************************
Target body name: Moon (301)                      {source: DE431mx}
Center body name: Earth (399)                     {source: DE431mx}
Center-site name: (user defined site below)
*******************************************************************************
Start time      : A.D. 2024-Jan-01 00:00:00.0000 UT      
Stop  time      : A.D. 2024-May-02 00:00:00.0000 UT      
Step-size       : 2 minutes
*******************************************************************************
Target pole/equ : IAU_MOON                        {East-longitude +}
Target radii    : 1737.4 x 1737.4 x 1737.4 km     {Equator, meridian, pole}    
Center geodetic : 284.844200,39.9494000,-1.01E-12 {E-lon(deg),Lat(deg),Alt(km)}
Center cylindric: 284.844200,4896.31709,4073.6801 {E-lon(deg),Dxy(km),Dz(km)}
Center pole/equ : High-precision EOP model        {East-longitude +}
Center radii    : 6378.1 x 6378.1 x 6356.8 km     {Equator, meridian, pole}    
Target primary  : Earth
Vis. interferer : MOON (R_eq= 1737.400) km        {source: DE431mx}
Rel. light bend : Sun, EARTH                      {source: DE431mx}
Rel. lght bnd GM: 1.3271E+11, 3.9860E+05 km^3/s^2                              
Atmos refraction: NO (AIRLESS)
RA format       : HMS
Time format     : CAL 
RTS-only print  : NO       
EOP file        : eop.161226.p170319                                           
EOP coverage    : DATA-BASED 1962-JAN-20 TO 2016-DEC-26. PREDICTS-> 2017-MAR-18
Units conversion: 1 au= 149597870.700 km, c= 299792.458 km/s, 1 day= 86400.0 s 
Table cut-offs 1: Elevation (-90.0deg=NO ),Airmass (>38.000=NO), Daylight (NO )
Table cut-offs 2: Solar Elongation (  0.0,180.0=NO ),Local Hour Angle( 0.0=NO )
*******************************************************************************
 Date__(UT)__HR:MN     Azi_(a-appr)_Elev
****************************************
$$SOE
 2024-Jan-06 20:48 *   273.2070 -34.9198
 2024-Jan-06 20:50 *   273.5262 -35.2904
 2024-Jan-06 20:52 *   273.8470 -35.6608
 2024-Jan-06 20:54 *   274.1695 -36.0311
 2024-Jan-06 20:56 *   274.4937 -36.4011
 2024-Jan-06 20:58 *   274.8196 -36.7710
 2024-Jan-06 21:00 *   275.1474 -37.1406
 2024-Jan-06 21:02 *   275.4771 -37.5100
 2024-Jan-06 21:04 *   275.8086 -37.8792
 2024-Jan-06 21:06 *   276.1422 -38.2482
 2024-Jan-06 21:08 *   276.4778 -38.6169
 2024-Jan-06 21:10 *   276.8154 -38.9853
 2024-Jan-06 21:12 *   277.1553 -39.3535
 2024-Jan-06 21:14 *   277.4973 -39.7213
 2024-Jan-06 21:16 *   277.8416 -40.0888
 2024-Jan-06 21:18 *   278.1882 -40.4560
 2024-Jan-06 21:20 *   278.5373 -40.8229
 2024-Jan-06 21:22 *   278.8888 -41.1894
 2024-Jan-06 21:24 *   279.2428 -41.5555
 2024-Jan-06 21:26 *   279.5995 -41.9212
 2024-Jan-06 21:28 *   279.9588 -42.2866
 2024-Jan-06 21:30 *   280.3209 -42.6515
 2024-Jan-06 21:32 *   280.6858 -43.0159
 2024-Jan-06 21:34 *   281.0536 -43.3799
 2024-Jan-06 21:36 *   281.4243 -43.7435
 2024-Jan-06 21:38 *   281.7981 -44.1065
 2024-Jan-06 21:40 *   282.1751 -44.4690
 2024-Jan-06 21:42 *   282.5553 -44.8310
 2024-Jan-06 21:44 *   282.9388 -45.1925
 2024-Jan-06 21:46 *   283.3257 -45.5534
 2024-Jan-06 21:48 *   283.7161 -45.9137
 2024-Jan-06 21:50 *   284.1100 -46.2733
 2024-Jan-06 21:52 C   284.5077 -46.6324
 2024-Jan-06 21:54 C   284.9091 -46.9907
 2024-Jan-06 21:56 C   285.3144 -47.3484
 2024-Jan-06 21:58 C   285.7237 -47.7054
 2024-Jan-06 22:00 C   286.1370 -48.0617
 2024-Jan-06 22:02 C   286.5546 -48.4172
 2024-Jan-06 22:04 C   286.9764 -48.7720
 2024-Jan-06 22:06 C   287.4027 -49.1259
 2024-Jan-06 22:08 C   287.8335 -49.4790
 2024-Jan-06 22:10 C   288.2690 -49.8313
 2024-Jan-06 22:12 C   288.7092 -50.1826
 2024-Jan-06 22:14 C   289.1544 -50.5331
 2024-Jan-06 22:16 C   289.6045 -50.8825
 2024-Jan-06 22:18 C   290.0599 -51.2311
 2024-Jan-06 22:20 C   290.5205 -51.5786
 2024-Jan-06 22:22 N   290.9866 -51.9250
 2024-Jan-06 22:24 N   291.4583 -52.2704
 2024-Jan-06 22:26 N   291.9357 -52.6147
 2024-Jan-06 22:28 N   292.4190 -52.9578
 2024-Jan-06 22:30 N   292.9084 -53.2997
 2024-Jan-06 22:32 N   293.4039 -53.6404
 2024-Jan-06 22:34 N   293.9059 -53.9798
 2024-Jan-06 22:36 N   294.4143 -54.3179
 2024-Jan-06 22:38 N   294.9294 -54.6547
 2024-Jan-06 22:40 N   295.4515 -54.9901
 2024-Jan-06 22:42 N   295.9805 -55.3240
 2024-Jan-06 22:44 N   296.5169 -55.6564
 2024-Jan-06 22:46 N   297.0606 -55.9873
 2024-Jan-06 22:48 N   297.6120 -56.3167
 2024-Jan-06 22:50 N   298.1711 -56.6443
 2024-Jan-06 22:52 N   298.7383 -56.9703
 2024-Jan-06 22:54 N   299.3137 -57.2945
 2024-Jan-06 22:56 A   299.8976 -57.6170
 2024-Jan-06 22:58 A   300.4901 -57.9375
 2024-Jan-06 23:00 A   301.0914 -58.2562
 2024-Jan-06 23:02 A   301.7019 -58.5728
 2024-Jan-06 23:04 A   302.3216 -58.8874
 2024-Jan-06 23:06 A   302.9509 -59.1999
 2024-Jan-06 23:08 A   303.5900 -59.5102
 2024-Jan-06 23:10 A   304.2390 -59.8183
 2024-Jan-06 23:12 A   304.8983 -60.1240
 2024-Jan-06 23:14 A   305.5682 -60.4272
 2024-Jan-06 23:16 A   306.2487 -60.7280
 2024-Jan-06 23:18 A   306.9402 -61.0263
 2024-Jan-06 23:20 A   307.6430 -61.3218
 2024-Jan-06 23:22 A   308.3573 -61.6146
 2024-Jan-06 23:24 A   309.0833 -61.9046
 2024-Jan-06 23:26 A   309.8213 -62.1917
 2024-Jan-06 23:28     310.5716 -62.4758
 2024-Jan-06 23:30     311.3344 -62.7567
 2024-Jan-06 23:32     312.1099 -63.0344
 2024-Jan-06 23:34     312.8985 -63.3088
 2024-Jan-06 23:36     313.7003 -63.5798
 2024-Jan-06 23:38     314.5155 -63.8472
 2024-Jan-06 23:40     315.3446 -64.1110
 2024-Jan-06 23:42     316.1876 -64.3710
 2024-Jan-06 23:44     317.0448 -64.6271
 2024-Jan-06 23:46     317.9163 -64.8792
 2024-Jan-06 23:48     318.8025 -65.1272
 2024-Jan-06 23:50     319.7035 -65.3709
 2024-Jan-06 23:52     320.6195 -65.6103
 2024-Jan-06 23:54     321.5506 -65.8451
 2024-Jan-06 23:56     322.4970 -66.0752
 2024-Jan-06 23:58     323.4588 -66.3006
 2024-Jan-07 00:00     324.4362 -66.5210
 2024-Jan-07 00:02     325.4292 -66.7364
 2024-Jan-07 00:04     326.4378 -66.9465
 2024-Jan-07 00:06     327.4621 -67.1513
 2024-Jan-07 00:08     328.5022 -67.3505
 2024-Jan-07 00:10     329.5579 -67.5441
 2024-Jan-07 00:12     330.6293 -67.7319
 2024-Jan-07 00:14     331.7161 -67.9137
 2024-Jan-07 00:16     332.8184 -68.0893
 2024-Jan-07 00:18     333.9359 -68.2588
 2024-Jan-07 00:20     335.0684 -68.4218
 2024-Jan-07 00:22     336.2156 -68.5782
 2024-Jan-07 00:24     337.3773 -68.7280
 2024-Jan-07 00:26     338.5531 -68.8709
 2024-Jan-07 00:28     339.7426 -69.0068
 2024-Jan-07 00:30     340.9454 -69.1356
 2024-Jan-07 00:32     342.1609 -69.2571
 2024-Jan-07 00:34     343.3887 -69.3713
 2024-Jan-07 00:36     344.6282 -69.4779
 2024-Jan-07 00:38     345.8786 -69.5769
 2024-Jan-07 00:40     347.1394 -69.6682
 2024-Jan-07 00:42     348.4099 -69.7516
 2024-Jan-07 00:44     349.6891 -69.8271
 2024-Jan-07 00:46     350.9765 -69.8945
 2024-Jan-07 00:48     352.2710 -69.9539
 2024-Jan-07 00:50     353.5718 -70.0050
 2024-Jan-07 00:52     354.8781 -70.0479
 2024-Jan-07 00:54     356.1889 -70.0825
 2024-Jan-07 00:56     357.5032 -70.1088
 2024-Jan-07 00:58     358.8200 -70.1267
 2024-Jan-07 01:00       0.1384 -70.1362
 2024-Jan-07 01:02       1.4574 -70.1373
 2024-Jan-07 01:04       2.7760 -70.1300
 2024-Jan-07 01:06       4.0931 -70.1143
 2024-Jan-07 01:08       5.4078 -70.0903
 2024-Jan-07 01:10       6.7192 -70.0579
 2024-Jan-07 01:12       8.0262 -70.0172
 2024-Jan-07 01:14       9.3279 -69.9682
 2024-Jan-07 01:16      10.6234 -69.9111
 2024-Jan-07 01:18      11.9118 -69.8459
 2024-Jan-07 01:20      13.1923 -69.7726
 2024-Jan-07 01:22      14.4641 -69.6914
 2024-Jan-07 01:24      15.7264 -69.6024
 2024-Jan-07 01:26      16.9784 -69.5056
 2024-Jan-07 01:28      18.2196 -69.4013
 2024-Jan-07 01:30      19.4491 -69.2894
 2024-Jan-07 01:32      20.6666 -69.1701
 2024-Jan-07 01:34      21.8713 -69.0435
 2024-Jan-07 01:36      23.0628 -68.9099
 2024-Jan-07 01:38      24.2408 -68.7693
 2024-Jan-07 01:40      25.4047 -68.6218
 2024-Jan-07 01:42      26.5542 -68.4676
 2024-Jan-07 01:44      27.6890 -68.3069
 2024-Jan-07 01:46      28.8089 -68.1398
 2024-Jan-07 01:48      29.9135 -67.9665
 2024-Jan-07 01:50      31.0029 -67.7870
 2024-Jan-07 01:52      32.0768 -67.6016
 2024-Jan-07 01:54      33.1350 -67.4104
 2024-Jan-07 01:56      34.1777 -67.2135
 2024-Jan-07 01:58      35.2046 -67.0112
 2024-Jan-07 02:00      36.2159 -66.8035
 2024-Jan-07 02:02      37.2115 -66.5906
 2024-Jan-07 02:04      38.1915 -66.3726
 2024-Jan-07 02:06      39.1560 -66.1497
 2024-Jan-07 02:08      40.1051 -65.9221
 2024-Jan-07 02:10      41.0390 -65.6898
 2024-Jan-07 02:12      41.9577 -65.4530
 2024-Jan-07 02:14      42.8614 -65.2119
 2024-Jan-07 02:16      43.7503 -64.9665
 2024-Jan-07 02:18      44.6246 -64.7170
 2024-Jan-07 02:20      45.4846 -64.4636
 2024-Jan-07 02:22      46.3303 -64.2062
 2024-Jan-07 02:24      47.1621 -63.9452
 2024-Jan-07 02:26      47.9801 -63.6805
 2024-Jan-07 02:28      48.7846 -63.4123
 2024-Jan-07 02:30      49.5759 -63.1408
 2024-Jan-07 02:32      50.3542 -62.8659
 2024-Jan-07 02:34      51.1197 -62.5878
 2024-Jan-07 02:36      51.8727 -62.3067
 2024-Jan-07 02:38      52.6134 -62.0226
 2024-Jan-07 02:40      53.3421 -61.7356
 2024-Jan-07 02:42      54.0591 -61.4458
 2024-Jan-07 02:44      54.7646 -61.1533
 2024-Jan-07 02:46      55.4589 -60.8582
 2024-Jan-07 02:48      56.1421 -60.5605
 2024-Jan-07 02:50      56.8146 -60.2604
 2024-Jan-07 02:52      57.4767 -59.9579
 2024-Jan-07 02:54      58.1284 -59.6532
 2024-Jan-07 02:56      58.7702 -59.3462
 2024-Jan-07 02:58      59.4022 -59.0370
 2024-Jan-07 03:00      60.0246 -58.7258
 2024-Jan-07 03:02      60.6378 -58.4126
 2024-Jan-07 03:04      61.2418 -58.0974
 2024-Jan-07 03:06      61.8370 -57.7804
 2024-Jan-07 03:08      62.4235 -57.4615
 2024-Jan-07 03:10      63.0017 -57.1409
